[{"OBJECT_NAME":"CUBESX-HSE 3 (RS42S)","OBJECT_ID":"2023-091N","EPOCH":"2026-03-09T22:57:25.321248","MEAN_MOTION":15.286147,"ECCENTRICITY":0.00127191,"INCLINATION":97.5203,"RA_OF_ASC_NODE":133.4295,"ARG_OF_PERICENTER":86.5376,"MEAN_ANOMALY":273.7318,"EPHEMERIS_TYPE":0,"CLASSIFICATION_TYPE":"U","NORAD_CAT_ID":57178,"ELEMENT_SET_NO":999,"REV_AT_EPOCH":14925,"BSTAR":0.00059055694,"MEAN_MOTION_DOT":0.00016417,"MEAN_MOTION_DDOT":0},{"OBJECT_NAME":"STARLINK-33974","OBJECT_ID":"2025-099C","EPOCH":"2026-03-09T07:25:40.708416","MEAN_MOTION":15.27587074,"ECCENTRICITY":0.00018341,"INCLINATION":42.9999,"RA_OF_ASC_NODE":178.7605,"ARG_OF_PERICENTER":275.0177,"MEAN_ANOMALY":85.0465,"EPHEMERIS_TYPE":0,"CLASSIFICATION_TYPE":"U","NORAD_CAT_ID":63954,"ELEMENT_SET_NO":999,"REV_AT_EPOCH":4727,"BSTAR":0.0014137065,"MEAN_MOTION_DOT":0.00038854,"MEAN_MOTION_DDOT":0}]
